IRIDIUM 36              
1 24967U 97056C   24347.72799858  .00000758  00000+0  24799-3 0  9993
2 24967  86.3970 251.2783 0001941  81.5530 278.5888 14.37288102425438
IRIDIUM 39              
1 25042U 97069D   24347.81181913  .00001339  00000+0  34945-3 0  9999
2 25042  86.3901 291.0451 0016763 202.6661 157.3804 14.48712147421970
IRIDIUM 38              
1 25043U 97069E   24348.16404644  .00000937  00000+0  30491-3 0  9993
2 25043  86.3945 311.4423 0002772  44.1423 315.9996 14.37775626419481
IRIDIUM 42              
1 25077U 97077A   24347.66461860  .00000959  00000+0  32335-3 0  9999
2 25077  86.3949 317.5934 0002511  71.0297 289.1172 14.36036321414423
IRIDIUM 44              
1 25078U 97077B   24347.77374486  .00000911  00000+0  28388-3 0  9990
2 25078  86.3941 299.9593 0000724  41.7564 318.3690 14.39905144416877
IRIDIUM 45              
1 25104U 97082A   24348.14478858  .00016842  00000+0  76216-3 0  9999
2 25104  86.3624 137.5839 0136623 304.6306  54.2111 15.12700556424075
IRIDIUM 24              
1 25105U 97082B   24347.91554187  .00000926  00000+0  27783-3 0  9995
2 25105  86.3924 159.2592 0010730 343.5020  16.5829 14.41727390416378
IRIDIUM 51              
1 25262U 98018A   24348.01132743  .00033005  00000+0  11293-2 0  9993
2 25262  86.3897 146.8674 0115470 238.0010 120.9974 15.23844531418740
